[
    {
        "Altitude(m)": 566947.9528647561,
        "Argument of Periapsis(deg)": 0.033114955553567506,
        "Eccentricity": 0.0,
        "Inclination(deg)": 53.0,
        "Latitude(deg)": -41.03643761330746,
        "Longitude(deg)": 165.29599030041516,
        "Mean Anomaly(deg)": -54.996535662112045,
        "RAAN(deg)": 309.9507168426401,
        "Satellite Name": "Starlink Shell 1 1379",
        "Satellite Number": 1379,
        "Semi-Major Axis(m)": 6931778.249405717,
        "Time(s)": 950
    },
    {
        "Altitude(m)": 566790.3871686971,
        "Argument of Periapsis(deg)": 0.03346353403307874,
        "Eccentricity": 0.0,
        "Inclination(deg)": 53.0,
        "Latitude(deg)": -40.65523227370044,
        "Longitude(deg)": 165.90916449933778,
        "Mean Anomaly(deg)": -54.369704458555404,
        "RAAN(deg)": 309.9501980725626,
        "Satellite Name": "Starlink Shell 1 1379",
        "Satellite Number": 1379,
        "Semi-Major Axis(m)": 6931778.249405717,
        "Time(s)": 960
    },
    {
        "Altitude(m)": 566631.3365207685,
        "Argument of Periapsis(deg)": 0.03381211251258998,
        "Eccentricity": 0.0,
        "Inclination(deg)": 53.0,
        "Latitude(deg)": -40.27032595983874,
        "Longitude(deg)": 166.51491680322107,
        "Mean Anomaly(deg)": -53.742873254998656,
        "RAAN(deg)": 309.94967930248515,
        "Satellite Name": "Starlink Shell 1 1379",
        "Satellite Number": 1379,
        "Semi-Major Axis(m)": 6931778.249405717,
        "Time(s)": 970
    },
    {
        "Altitude(m)": 566470.8629109161,
        "Argument of Periapsis(deg)": 0.034160690992101214,
        "Eccentricity": 0.0,
        "Inclination(deg)": 53.0,
        "Latitude(deg)": -39.88180804076675,
        "Longitude(deg)": 167.1133617302504,
        "Mean Anomaly(deg)": -53.11604205144196,
        "RAAN(deg)": 309.94916053240763,
        "Satellite Name": "Starlink Shell 1 1379",
        "Satellite Number": 1379,
        "Semi-Major Axis(m)": 6931778.249405717,
        "Time(s)": 980
    },
    {
        "Altitude(m)": 566309.0288176091,
        "Argument of Periapsis(deg)": 0.034509269471612446,
        "Eccentricity": 0.0,
        "Inclination(deg)": 53.0,
        "Latitude(deg)": -39.48976606751835,
        "Longitude(deg)": 167.7046155901417,
        "Mean Anomaly(deg)": -52.48921084788521,
        "RAAN(deg)": 309.94864176233017,
        "Satellite Name": "Starlink Shell 1 1379",
        "Satellite Number": 1379,
        "Semi-Major Axis(m)": 6931778.249405717,
        "Time(s)": 990
    }
]